[{"OBJECT_NAME":"YAOGAN-36 04C","OBJECT_ID":"2022-171E","EPOCH":"2026-03-09T18:55:44.889600","MEAN_MOTION":15.29852307,"ECCENTRICITY":0.00066848,"INCLINATION":34.9797,"RA_OF_ASC_NODE":96.6578,"ARG_OF_PERICENTER":275.3761,"MEAN_ANOMALY":84.6192,"EPHEMERIS_TYPE":0,"CLASSIFICATION_TYPE":"U","NORAD_CAT_ID":54750,"ELEMENT_SET_NO":999,"REV_AT_EPOCH":18024,"BSTAR":0.00054591902,"MEAN_MOTION_DOT":0.00016196,"MEAN_MOTION_DDOT":0},{"OBJECT_NAME":"STARLINK-34790","OBJECT_ID":"2025-212Q","EPOCH":"2026-03-09T04:22:21.271296","MEAN_MOTION":15.3019012,"ECCENTRICITY":0.00011465,"INCLINATION":53.1613,"RA_OF_ASC_NODE":348.1884,"ARG_OF_PERICENTER":54.1071,"MEAN_ANOMALY":306.0036,"EPHEMERIS_TYPE":0,"CLASSIFICATION_TYPE":"U","NORAD_CAT_ID":65690,"ELEMENT_SET_NO":999,"REV_AT_EPOCH":2711,"BSTAR":0.0016901619,"MEAN_MOTION_DOT":0.00050021,"MEAN_MOTION_DDOT":0}]
